{"type":"FeatureCollection","properties":{"source":"OpenStreetMap contributors, ODbL; via Overpass","bbox":"37.8040,-122.4340,37.8145,-122.4140"},"features":[{"type":"Feature","geometry":{"type":"Polygon","coordinates":[[[-122.421709,37.8079636],[-122.4214012,37.8082561],[-122.4210856,37.8085608],[-122.421004,37.8081893],[-122.4210458,37.8081819],[-122.4210832,37.8082203],[-122.4212138,37.8082036],[-122.4212388,37.8081496],[-122.4214384,37.808027],[-122.4214847,37.8079991],[-122.421585,37.8078919],[-122.4215655,37.8077903],[-122.4216008,37.8077712],[-122.4233777,37.8068086],[-122.4236503,37.806696],[-122.4239355,37.8066243],[-122.4241572,37.8066007],[-122.4244058,37.8065986],[-122.424679,37.8066449],[-122.4242548,37.8067168],[-122.4235526,37.8069036],[-122.4221837,37.8075995],[-122.421709,37.8079636]]]},"properties":{"role":"beach","name":null,"osm_id":224941181,"nodes":23}},{"type":"Feature","geometry":{"type":"Polygon","coordinates":[[[-122.4235724,37.8101426],[-122.4234069,37.8099399],[-122.4233864,37.8099535],[-122.4233686,37.8099573],[-122.4233501,37.8099555],[-122.4233364,37.8099514],[-122.4233226,37.8099428],[-122.423315,37.8099326],[-122.4233119,37.8099218],[-122.4233127,37.8099086],[-122.4233172,37.8098972],[-122.4233248,37.8098888],[-122.4233358,37.8098806],[-122.4233504,37.8098761],[-122.423364,37.8098746],[-122.4233742,37.8098756],[-122.4233906,37.8098799],[-122.4234046,37.80989],[-122.4234997,37.8100087],[-122.423608,37.8101405],[-122.423677,37.8103782],[-122.4236414,37.8106064],[-122.4235076,37.8108206],[-122.4233003,37.8109807],[-122.4225309,37.8112621],[-122.4216766,37.8115751],[-122.4210045,37.8118202],[-122.4206129,37.8119641],[-122.4198096,37.812022],[-122.4198078,37.8120079],[-122.4198061,37.8119953],[-122.4201448,37.8119695],[-122.4206046,37.8119362],[-122.4210885,37.8117584],[-122.4216875,37.8115382],[-122.4224703,37.8112504],[-122.4232854,37.810957],[-122.4234842,37.8108025],[-122.4236099,37.8105977],[-122.4236434,37.8103735],[-122.4235724,37.8101426]]]},"properties":{"role":"breakwater","name":"Fisherman's Wharf Breakwater","osm_id":324836244,"nodes":41}},{"type":"Feature","geometry":{"type":"LineString","coordinates":[[-122.4234025,37.809913],[-122.4235902,37.8101407],[-122.4236598,37.8103744],[-122.4236242,37.8106016],[-122.4234987,37.8108096],[-122.4232969,37.8109666],[-122.4206121,37.8119485],[-122.4198078,37.8120079]]},"properties":{"role":"breakwater","name":null,"osm_id":587550500,"nodes":8}},{"type":"Feature","geometry":{"type":"Polygon","coordinates":[[[-122.41522,37.8078123],[-122.4154636,37.8077811],[-122.4154645,37.8077853],[-122.4155593,37.8077736],[-122.4155682,37.8078158],[-122.4155899,37.8078137],[-122.4156001,37.8078157],[-122.4156066,37.8078209],[-122.4156104,37.8078288],[-122.4156683,37.8081092],[-122.4156692,37.8081163],[-122.4156692,37.8081224],[-122.4156682,37.8081276],[-122.4156656,37.8081319],[-122.415661,37.8081352],[-122.4156554,37.8081378],[-122.4156496,37.80814],[-122.4154042,37.8081711],[-122.4153939,37.8081725],[-122.4153878,37.8081728],[-122.4153804,37.808173],[-122.4153761,37.8081721],[-122.4153717,37.808171],[-122.4153666,37.8081677],[-122.4153631,37.8081632],[-122.41536,37.8081545],[-122.4153586,37.8081488],[-122.4153357,37.8081519],[-122.4153351,37.8081494],[-122.4153307,37.8081499],[-122.4153349,37.8081713],[-122.4153183,37.8081732],[-122.4153196,37.8081802],[-122.4153182,37.808182],[-122.4152649,37.8081892],[-122.4152446,37.8081899],[-122.4152327,37.8081296],[-122.415221,37.8081222],[-122.4152154,37.8080879],[-122.4152221,37.8080797],[-122.4152122,37.8080259],[-122.415201,37.8080201],[-122.4151954,37.8079846],[-122.4152023,37.8079773],[-122.4151714,37.8078047],[-122.4151894,37.8078017],[-122.4151928,37.8078127],[-122.41522,37.8078123]]]},"properties":{"role":"building","name":"Ripley's Believe it or Not","osm_id":288473102,"nodes":48}},{"type":"Feature","geometry":{"type":"Polygon","coordinates":[[[-122.4212084,37.8079535],[-122.4212288,37.8080629],[-122.4212215,37.8080638],[-122.421232,37.8081175],[-122.4211967,37.8081217],[-122.4211954,37.8081119],[-122.4211679,37.8081114],[-122.4211281,37.8080752],[-122.421096,37.8080791],[-122.4210864,37.8080297],[-122.4209778,37.8080432],[-122.420975,37.8080437],[-122.4209596,37.8079835],[-122.4209197,37.8079898],[-122.4209092,37.8079482],[-122.4209284,37.8079447],[-122.4209499,37.8079417],[-122.420939,37.8078952],[-122.420935,37.8078958],[-122.4209299,37.8078697],[-122.4209313,37.8078696],[-122.4209253,37.8078426],[-122.420904,37.8078452],[-122.4209109,37.8078744],[-122.4208471,37.8078821],[-122.4208325,37.8078172],[-122.4208603,37.8078137],[-122.4208444,37.8077441],[-122.4208281,37.8077368],[-122.4208235,37.8077139],[-122.420894,37.8077041],[-122.4208937,37.8076852],[-122.420896,37.8076787],[-122.4209024,37.8076748],[-122.4209684,37.8076661],[-122.4209688,37.8076679],[-122.4210314,37.8076595],[-122.4210329,37.8076663],[-122.4211398,37.8076535],[-122.4212084,37.8079535]]]},"properties":{"role":"building","name":"South End Rowing Club","osm_id":288391837,"nodes":40}},{"type":"Feature","geometry":{"type":"Polygon","coordinates":[[[-122.4211398,37.8076535],[-122.4213515,37.8076256],[-122.4213554,37.8076428],[-122.4213567,37.8076427],[-122.421352,37.8076225],[-122.4214022,37.8076152],[-122.4214069,37.8076357],[-122.4214436,37.8076304],[-122.4214421,37.8076232],[-122.4214794,37.807617],[-122.4215108,37.8077564],[-122.4215272,37.8077651],[-122.4215327,37.8077865],[-122.4215175,37.8078031],[-122.4214911,37.8078058],[-122.4214722,37.8077943],[-122.4213813,37.8078065],[-122.4213996,37.8078879],[-122.4212641,37.8079071],[-122.4212725,37.8079443],[-122.4212084,37.8079535],[-122.4211398,37.8076535]]]},"properties":{"role":"building","name":"Dolphin Club","osm_id":288391828,"nodes":22}},{"type":"Feature","geometry":{"type":"Polygon","coordinates":[[[-122.4242712,37.8064343],[-122.423555,37.8065297],[-122.4235161,37.8065212],[-122.4234826,37.8064969],[-122.4234652,37.8064608],[-122.4234652,37.8064248],[-122.423488,37.8063973],[-122.4235255,37.8063803],[-122.4242363,37.8062902],[-122.4242819,37.8062944],[-122.4243181,37.8063178],[-122.4243342,37.8063538],[-122.4243302,37.8063887],[-122.4243061,37.8064184],[-122.4242712,37.8064343]]]},"properties":{"role":"building","name":"National Maritime Museum","osm_id":32839686,"nodes":15}},{"type":"Feature","geometry":{"type":"LineString","coordinates":[[-122.4075586,37.8080734],[-122.4076173,37.8082238],[-122.4076815,37.8082058],[-122.4077255,37.8082249],[-122.4078807,37.8081857],[-122.4078562,37.808102],[-122.4078861,37.8080964],[-122.4083509,37.8082961],[-122.4083789,37.8083733],[-122.4089631,37.8086008],[-122.4089598,37.8086075],[-122.4089926,37.808661],[-122.4089607,37.8087408],[-122.4090316,37.8087612],[-122.4091914,37.8090326],[-122.4092031,37.8090524],[-122.4092161,37.8090842],[-122.4092027,37.8091658],[-122.4093413,37.8091801],[-122.409337,37.80921],[-122.409578,37.809239],[-122.4097152,37.8093199],[-122.4097901,37.8094511],[-122.4097939,37.8094578],[-122.4097974,37.8094638],[-122.4100728,37.8099367],[-122.4100777,37.8099449],[-122.4100814,37.8099521],[-122.4101492,37.8100182],[-122.4101865,37.8101533],[-122.410165,37.8102557],[-122.4101791,37.8102853],[-122.4101616,37.810377],[-122.4101379,37.8103961],[-122.4101339,37.8104131],[-122.4101244,37.8104535],[-122.4101409,37.8104774],[-122.4101234,37.8105696],[-122.4100971,37.8105949],[-122.4100847,37.8106499],[-122.4101012,37.8106767],[-122.4100813,37.8107731],[-122.4100576,37.8107867],[-122.4100447,37.8108428],[-122.4100607,37.8108729],[-122.4100531,37.8109106],[-122.4100519,37.8109173],[-122.4100506,37.8109251],[-122.4100444,37.8109617],[-122.4100148,37.8109892],[-122.4100065,37.811038],[-122.4101902,37.8113641],[-122.4101961,37.8113745],[-122.4102058,37.8113775],[-122.4103973,37.8114368],[-122.4104067,37.8114517],[-122.4104135,37.8114625],[-122.4104203,37.8114724],[-122.4106184,37.8114031],[-122.410689,37.8114229],[-122.4107528,37.8114],[-122.4109325,37.8113361],[-122.4109564,37.8112811],[-122.4110133,37.8112605],[-122.4112522,37.8111752],[-122.4113343,37.8110053],[-122.4113713,37.810963],[-122.4111634,37.8106005],[-122.4111048,37.8105963],[-122.4109071,37.8102524],[-122.4109049,37.8102486],[-122.410901,37.810242],[-122.4108619,37.8101577],[-122.4107425,37.809951],[-122.4106394,37.8097782],[-122.4104449,37.8093145],[-122.410502,37.808818],[-122.4107735,37.8088138],[-122.4107838,37.8088153],[-122.410794,37.8088167],[-122.4110387,37.8088516],[-122.4110514,37.8088534],[-122.4110676,37.8088558],[-122.4114307,37.8089094],[-122.411667,37.8091864],[-122.4115619,37.8092426],[-122.4116459,37.8093395],[-122.4117528,37.8092838],[-122.4118038,37.8093444],[-122.4117542,37.8093713],[-122.4117977,37.809423],[-122.4117373,37.8094556],[-122.4127044,37.8105745],[-122.4127289,37.8106087],[-122.4128803,37.8105286],[-122.4127271,37.8103693],[-122.4126307,37.8104227],[-122.412438,37.8102008],[-122.4125354,37.8101513],[-122.4124497,37.810052],[-122.4123515,37.8101031],[-122.4121406,37.8098567],[-122.4122342,37.8098081],[-122.4121528,37.8097131],[-122.4120602,37.809764],[-122.411834,37.809503],[-122.4119407,37.8094416],[-122.4119032,37.8093982],[-122.4120066,37.8093416],[-122.412049,37.8093486],[-122.4120744,37.8093345],[-122.412082,37.8093301],[-122.4120953,37.8093236],[-122.4121044,37.8093184],[-122.4121117,37.8092837],[-122.4123049,37.8091785],[-122.4123574,37.8091843],[-122.4123721,37.8091755],[-122.41238,37.8091703],[-122.4123905,37.8091645],[-122.4124051,37.8091558],[-122.4124132,37.8091232],[-122.4125139,37.8090671],[-122.4126254,37.8090863],[-122.4126655,37.8091032],[-122.4126643,37.8091075],[-122.4130577,37.80927],[-122.4130791,37.8093128],[-122.4133195,37.8094111],[-122.4133472,37.8093697],[-122.4133281,37.809361],[-122.4134251,37.8092139],[-122.4135079,37.8092455],[-122.4135285,37.8092121],[-122.4134383,37.8091412],[-122.4133378,37.8091098],[-122.4132694,37.8091018],[-122.413164,37.8090912],[-122.4131119,37.8090846],[-122.4130567,37.8090711],[-122.4130472,37.8090862],[-122.4128709,37.8090137],[-122.4128971,37.8089758],[-122.4140809,37.8090125],[-122.4144813,37.8092758],[-122.4147955,37.8092874],[-122.414865,37.8092638],[-122.4149178,37.8092446],[-122.4150612,37.80919],[-122.4151308,37.8091593],[-122.415223,37.8091612],[-122.4153761,37.809168],[-122.4188363,37.8114517],[-122.4189033,37.8114794],[-122.4193744,37.8114966],[-122.4194706,37.8114024],[-122.4193,37.8112361],[-122.419126,37.8111207],[-122.4192911,37.8109638],[-122.4197888,37.8111807],[-122.4200002,37.8112884],[-122.4200062,37.8112924],[-122.4203148,37.8114961],[-122.4203491,37.8114626],[-122.4204103,37.8115003],[-122.4206166,37.8113024],[-122.4206124,37.8112673],[-122.4188785,37.8101337],[-122.4174286,37.809151],[-122.4174328,37.8091059],[-122.4174266,37.8091082],[-122.4171952,37.8091005],[-122.4168663,37.8090902],[-122.4168349,37.8090672],[-122.4167937,37.8090648],[-122.4167996,37.8089557],[-122.4168011,37.8089272],[-122.4168026,37.8088988],[-122.4162435,37.8088792],[-122.4162443,37.8088507],[-122.4162036,37.808849],[-122.4162082,37.8087911],[-122.4162431,37.8087923],[-122.4162606,37.8084927],[-122.4163636,37.8084792],[-122.4163293,37.80833],[-122.4163967,37.8083247],[-122.4163882,37.8082637],[-122.4173769,37.8081415],[-122.4174215,37.8083415],[-122.41767,37.8083081],[-122.4176889,37.8084191],[-122.417509,37.8084392],[-122.4174794,37.8085944],[-122.4177026,37.8085944],[-122.4178283,37.8086499],[-122.4179123,37.8090296],[-122.4179172,37.8090335],[-122.4180252,37.8091072],[-122.4183066,37.8092111],[-122.4183762,37.8090754],[-122.4188785,37.8090827],[-122.419084,37.8091636],[-122.4190844,37.8090895],[-122.4199342,37.8091166],[-122.4199428,37.8088792],[-122.418887,37.8088792],[-122.418887,37.8088386],[-122.4179429,37.8088386],[-122.4178866,37.808622],[-122.4192933,37.8084537],[-122.41928,37.8083799],[-122.4204726,37.8082181],[-122.4205525,37.8086308],[-122.4204536,37.8086434],[-122.420335,37.8087186],[-122.4203433,37.8087654],[-122.4206315,37.8087219],[-122.4206605,37.8088809],[-122.4207303,37.8088779],[-122.4207653,37.8088711],[-122.4209278,37.8087873],[-122.4209684,37.8089771],[-122.4210485,37.8089658],[-122.4210535,37.8089941],[-122.4210562,37.8090092],[-122.4210732,37.8090073],[-122.4212412,37.8092411],[-122.4213682,37.8091775],[-122.4214653,37.8092384],[-122.4220434,37.8096663],[-122.4221923,37.8097723],[-122.422442,37.8099581],[-122.4226105,37.8100836],[-122.4228337,37.8102497],[-122.4228811,37.8102105],[-122.4228211,37.8101653],[-122.4228429,37.8101468],[-122.422748,37.8100766],[-122.4227275,37.8100939],[-122.4221024,37.8096324],[-122.4218252,37.809426],[-122.4215261,37.8091988],[-122.4215645,37.8091682],[-122.4211318,37.8088124],[-122.4210856,37.8085608],[-122.4214012,37.8082561],[-122.421709,37.8079636],[-122.4221837,37.8075995],[-122.4235526,37.8069036],[-122.4242548,37.8067168],[-122.424679,37.8066449],[-122.4247091,37.8066555],[-122.4251049,37.806774],[-122.4255194,37.8069585],[-122.425877,37.8071579],[-122.4261253,37.8073404],[-122.4261584,37.8073769],[-122.4263154,37.8075648],[-122.4264007,37.8077232],[-122.4264217,37.8077195],[-122.4264552,37.8078227],[-122.4264771,37.8079287],[-122.426528,37.808171]]},"properties":{"role":"coast","name":null,"osm_id":32648495,"nodes":264}},{"type":"Feature","geometry":{"type":"LineString","coordinates":[[-122.426528,37.808171],[-122.4267388,37.8081526],[-122.4268689,37.8081244],[-122.4270283,37.8081142],[-122.4270648,37.8081125],[-122.4274435,37.8081592],[-122.4276586,37.8082286],[-122.4278919,37.8082392],[-122.428077,37.8083123],[-122.4281535,37.8083172],[-122.4283338,37.8082561],[-122.4285397,37.808201],[-122.4287543,37.808107],[-122.429001,37.8079827],[-122.4290506,37.8079743],[-122.4290989,37.8079944],[-122.4291807,37.8080135],[-122.4292411,37.8080114],[-122.4292773,37.80797],[-122.4293014,37.8078969],[-122.4298406,37.8078249],[-122.430117,37.8091938],[-122.430141,37.8092192],[-122.4301758,37.809232],[-122.4306063,37.80918],[-122.4306425,37.809161],[-122.4306546,37.8091292],[-122.430318,37.8074572],[-122.430377,37.8073947],[-122.4309255,37.8073269],[-122.4309939,37.8073703],[-122.431335,37.8090582],[-122.4313654,37.8090751],[-122.4313949,37.8090857],[-122.4316913,37.8090444],[-122.4317342,37.8090264],[-122.4317476,37.8089893],[-122.4314016,37.8073152],[-122.4314539,37.807258],[-122.4320078,37.807187],[-122.4320829,37.8072304],[-122.4323498,37.8085464],[-122.4326287,37.8085093],[-122.4325217,37.8079662],[-122.4323551,37.8071203],[-122.4323327,37.8069626],[-122.4321276,37.8059729]]},"properties":{"role":"coast","name":null,"osm_id":82246922,"nodes":47}},{"type":"Feature","geometry":{"type":"LineString","coordinates":[[-122.4321276,37.8059729],[-122.4322161,37.805939],[-122.4323783,37.8059157],[-122.432483,37.8058807],[-122.4325691,37.8058353],[-122.4326389,37.805776],[-122.4326484,37.805771],[-122.4327193,37.8057336],[-122.4328481,37.8057039],[-122.4336206,37.8056022],[-122.43376,37.8056234],[-122.4338405,37.8056616],[-122.4338888,37.8057251],[-122.4339059,37.805814],[-122.4339689,37.8061212],[-122.4340373,37.8064269],[-122.434103,37.8067305],[-122.4341355,37.8068822],[-122.4341785,37.8069331],[-122.4342321,37.8069585],[-122.4343179,37.8069627],[-122.4344259,37.8069506],[-122.4355625,37.8068229],[-122.4356161,37.8068398],[-122.4356376,37.8068822],[-122.4356384,37.8068966],[-122.4357021,37.8072576],[-122.4357502,37.8075307],[-122.4357771,37.8075519],[-122.4358273,37.8075583],[-122.435879,37.8075603],[-122.4377737,37.8073203]]},"properties":{"role":"coast","name":null,"osm_id":911701793,"nodes":32}},{"type":"Feature","geometry":{"type":"Polygon","coordinates":[[[-122.4267388,37.8081526],[-122.426528,37.808171],[-122.4265372,37.8082053],[-122.4266248,37.8086389],[-122.4266436,37.8087558],[-122.4266489,37.8088127],[-122.426652,37.8088627],[-122.4266521,37.8088697],[-122.4266523,37.8089793],[-122.4266456,37.8090852],[-122.4266405,37.8091363],[-122.4266332,37.8091869],[-122.4266139,37.8092841],[-122.4265896,37.8093764],[-122.4265614,37.8094637],[-122.4265468,37.8095049],[-122.4265302,37.8095457],[-122.4264968,37.809622],[-122.4264617,37.809692],[-122.4264264,37.8097559],[-122.4263908,37.8098136],[-122.4263578,37.8098637],[-122.4263269,37.8099077],[-122.4262995,37.8099446],[-122.4262605,37.8099936],[-122.4262379,37.8100202],[-122.4261948,37.8100695],[-122.4261641,37.8101024],[-122.426129,37.8101378],[-122.4260886,37.8101763],[-122.4260424,37.8102175],[-122.4259871,37.8102617],[-122.4259271,37.8103066],[-122.425861,37.8103513],[-122.425787,37.8103948],[-122.4257064,37.8104381],[-122.42562,37.8104793],[-122.4255248,37.8105178],[-122.4254249,37.8105524],[-122.4253163,37.8105841],[-122.4252018,37.8106101],[-122.4251426,37.810621],[-122.4250805,37.8106296],[-122.4250169,37.8106357],[-122.4249512,37.8106398],[-122.424869,37.8106408],[-122.4248267,37.8106389],[-122.4248059,37.8106382],[-122.4247858,37.8106357],[-122.4247675,37.8106309],[-122.4247529,37.8106243],[-122.4247383,37.8106154],[-122.4247272,37.810605],[-122.4247184,37.8105928],[-122.4247121,37.8105783],[-122.4247099,37.8105697],[-122.4247085,37.8105609],[-122.4247077,37.8105434],[-122.4247064,37.8105299],[-122.4247031,37.8105169],[-122.4246973,37.8105025],[-122.4246876,37.8104867],[-122.4246743,37.8104698],[-122.4246566,37.810453],[-122.4246346,37.8104374],[-122.4246091,37.8104238],[-122.4245803,37.8104128],[-122.4245485,37.8104055],[-122.424514,37.8104025],[-122.4244769,37.8104039],[-122.4244416,37.8104103],[-122.4244113,37.8104204],[-122.424387,37.8104329],[-122.4243683,37.8104456],[-122.4243465,37.8104649],[-122.4243297,37.8104869],[-122.4243188,37.810506],[-122.4243113,37.8105258],[-122.4243063,37.810554],[-122.4243057,37.8105712],[-122.4243092,37.8105896],[-122.4243158,37.8106087],[-122.4243259,37.8106285],[-122.4243388,37.8106492],[-122.4243569,37.8106705],[-122.4243799,37.8106931],[-122.4244108,37.8107153],[-122.4244502,37.810736],[-122.4244978,37.8107538],[-122.4245548,37.8107712],[-122.424621,37.8107852],[-122.424698,37.8107966],[-122.4247859,37.8108038],[-122.4248501,37.8108063],[-122.424914,37.8108066],[-122.4249718,37.8108051],[-122.4250325,37.8108019],[-122.4250785,37.8107972],[-122.4251443,37.8107893],[-122.425209,37.8107794],[-122.4253316,37.8107537],[-122.4254485,37.8107233],[-122.4255587,37.8106878],[-122.4256628,37.8106489],[-122.4257606,37.8106064],[-122.4258503,37.810562],[-122.4259327,37.8105164],[-122.4260086,37.8104693],[-122.4260751,37.8104237],[-122.4261357,37.8103797],[-122.4261874,37.8103381],[-122.4262318,37.8103003],[-122.4262674,37.8102671],[-122.4263171,37.8102191],[-122.4263523,37.8101831],[-122.4263728,37.8101605],[-122.4264002,37.8101276],[-122.4264334,37.8100889],[-122.426471,37.8100415],[-122.4265137,37.8099856],[-122.4265568,37.8099218],[-122.4266009,37.8098505],[-122.4266453,37.8097719],[-122.4266889,37.8096867],[-122.4267104,37.8096403],[-122.4267301,37.8095936],[-122.4267496,37.8095442],[-122.4267694,37.8094944],[-122.4267857,37.8094413],[-122.4268009,37.8093882],[-122.426816,37.8093322],[-122.4268288,37.809276],[-122.4268492,37.8091571],[-122.4268604,37.8090331],[-122.4268619,37.8089682],[-122.4268626,37.8089033],[-122.4268606,37.8088561],[-122.4268587,37.8088362],[-122.4268535,37.8087687],[-122.4268445,37.8086984],[-122.4268325,37.8086288],[-122.4267443,37.8081808],[-122.4267388,37.8081526]]]},"properties":{"role":"pier","name":"Municipal Pier","osm_id":82206919,"nodes":143}},{"type":"Feature","geometry":{"type":"Polygon","coordinates":[[[-122.4209278,37.8087873],[-122.4210114,37.8087758],[-122.4211318,37.8088124],[-122.4215645,37.8091682],[-122.4215261,37.8091988],[-122.4218252,37.809426],[-122.4221024,37.8096324],[-122.4227275,37.8100939],[-122.422748,37.8100766],[-122.4228429,37.8101468],[-122.4228211,37.8101653],[-122.4228811,37.8102105],[-122.4228337,37.8102497],[-122.4226105,37.8100836],[-122.422442,37.8099581],[-122.4221923,37.8097723],[-122.4220434,37.8096663],[-122.4214653,37.8092384],[-122.4213682,37.8091775],[-122.4212412,37.8092411],[-122.4210732,37.8090073],[-122.4210562,37.8090092],[-122.4210535,37.8089941],[-122.4210485,37.8089658],[-122.4209684,37.8089771],[-122.4209278,37.8087873]]]},"properties":{"role":"pier","name":"Hyde Street Pier","osm_id":456528981,"nodes":26}},{"type":"Feature","geometry":{"type":"Polygon","coordinates":[[[-122.4169325,37.8090995],[-122.4162245,37.8090892],[-122.4153873,37.8090522],[-122.4153761,37.809168],[-122.4188363,37.8114517],[-122.4189033,37.8114794],[-122.4193744,37.8114966],[-122.4194706,37.8114024],[-122.4193,37.8112361],[-122.419126,37.8111207],[-122.4192911,37.8109638],[-122.4200062,37.8112924],[-122.4203148,37.8114961],[-122.4203491,37.8114626],[-122.4204103,37.8115003],[-122.4206166,37.8113024],[-122.4206124,37.8112673],[-122.4193146,37.8103806],[-122.419291,37.8104034],[-122.4174131,37.8091662],[-122.4169325,37.8090995]]]},"properties":{"role":"pier","name":"Pier 45","osm_id":1255058987,"nodes":21}},{"type":"Feature","geometry":{"type":"Polygon","coordinates":[[[-122.4178283,37.8086499],[-122.4179123,37.8090296],[-122.4179172,37.8090335],[-122.4180252,37.8091072],[-122.4183066,37.8092111],[-122.4183762,37.8090754],[-122.4188785,37.8090827],[-122.419084,37.8091636],[-122.4190844,37.8090895],[-122.4199342,37.8091166],[-122.4199428,37.8088792],[-122.418887,37.8088792],[-122.418887,37.8088386],[-122.4179429,37.8088386],[-122.4178866,37.808622],[-122.4178283,37.8086499]]]},"properties":{"role":"pier","name":"Pier 47","osm_id":456529232,"nodes":16}},{"type":"Feature","geometry":{"type":"Polygon","coordinates":[[[-122.4268689,37.8081244],[-122.4269188,37.8081439],[-122.426943,37.8081656],[-122.4275426,37.8087044],[-122.4275626,37.8087913],[-122.4280686,37.8087187],[-122.4280379,37.8085847],[-122.4275721,37.8086516],[-122.4270207,37.8081542],[-122.4270248,37.8081327],[-122.4270283,37.8081142],[-122.4268689,37.8081244]]]},"properties":{"role":"pier","name":"Black Point Pier","osm_id":82207077,"nodes":12}},{"type":"Feature","geometry":{"type":"Polygon","coordinates":[[[-122.4159841,37.8096917],[-122.4160901,37.8097871],[-122.4161821,37.80986],[-122.4163221,37.8099555],[-122.4165109,37.8100721],[-122.4166228,37.8101332],[-122.4168179,37.8102232],[-122.4166677,37.8100963],[-122.416564,37.8100201],[-122.4163849,37.8099024],[-122.4162363,37.8098164],[-122.4161221,37.8097595],[-122.4159841,37.8096917]]]},"properties":{"role":"ship","name":"USS Pampanito","osm_id":165601339,"nodes":13}},{"type":"Feature","geometry":{"type":"Polygon","coordinates":[[[-122.422738,37.8104396],[-122.422792,37.8104051],[-122.4228527,37.8103509],[-122.4228854,37.8103145],[-122.4228422,37.8102819],[-122.4228,37.8103136],[-122.422733,37.810367],[-122.4226947,37.8104061],[-122.422738,37.8104396]]]},"properties":{"role":"ship","name":"Alma","osm_id":165579428,"nodes":9}}]}